*******************************************************************************
 Revised: Nov 05, 2015             134340 Pluto                             999
 
 Fit to all available observations (PLU043/DE433) including New Horizons
 encounter tracking.

 ICRF/J2000.0 helio. ecliptic osc. elements (AU, DAYS, DEG, period=Julian yrs):

 EPOCH= 2457217.5 ! 2015-Jul-14 00:00:00.0000 (TDB)
  EC= 2.543193766760227E-01 QR= 2.963711277830007E+01 IN= 1.736672922693450E+01
  OM= 1.102097591127033E+02 W = 1.142276233642205E+02 Tp=  2447886.048708124086
  N = 3.933503338914713E-03 MA= 3.670529481351401E+01 TA= 5.935219029576444E+01
  A = 3.974504882021532E+01 AD= 4.985298486213057E+01 PR= 9.152146801007345E+04

 NOTE:
  The Horizons output log may report using DE431 as the source of target or
  center data, but it is nevertheless using DE433 as an override if Pluto is 
  involved. This is to maintain ephemeris consistency for the New Horizons 
  spacecraft encounter at Pluto.

 PHYSICAL DATA (updated 2013-Nov-19, Mc= Charon mass, radius is IAU 2009):
  Mass Pluto (10^22 kg) = 1.307+-0.018    Density Pluto:
  GM (planet) km^3/s^2  = 872.4             (R = 1195 km)       = 1.83 g/cm^3
  Mass ratio (Mc/Mp)    = 0.117           Radius of Pluto, Rp   = 1195 km
  Surface gravity       = 61.1 cm/s^2     Geometric albedo      = 0.3 
  Sidereal orbit period = 249.58932 yr    Mean orbit velocity   = 4.656 km/s
  Escape velocity (km/s)= 1.21
*******************************************************************************
 
 
*******************************************************************************
Ephemeris / WWW_USER Thu Dec  8 13:56:38 2016 Pasadena, USA      / Horizons    
*******************************************************************************
Target body name: Pluto (999)                     {source: plu055l_merged}
Center body name: Sun (10)                        {source: plu055l_merged}
Center-site name: BODY CENTER
*******************************************************************************
Start time      : A.D. 1996-Dec-12 00:00:00.0000 TDB
Stop  time      : A.D. 1996-Dec-13 00:00:00.0000 TDB
Step-size       : 1440 minutes
*******************************************************************************
Center geodetic : 0.00000000,0.00000000,0.0000000 {E-lon(deg),Lat(deg),Alt(km)}
Center cylindric: 0.00000000,0.00000000,0.0000000 {E-lon(deg),Dxy(km),Dz(km)}
Center radii    : 696000.0 x 696000.0 x 696000.0 k{Equator, meridian, pole}    
Output units    : KM-S                                                         
Output type     : GEOMETRIC cartesian states
Output format   : 2 (position and velocity)
Reference frame : ICRF/J2000.0                                                 
Coordinate systm: Ecliptic and Mean Equinox of Reference Epoch                 
*******************************************************************************
            JDTDB,            Calendar Date (TDB),                      X,                      Y,                      Z,                     VX,                     VY,                     VZ,
**************************************************************************************************************************************************************************************************
$$SOE
2450429.500000000, A.D. 1996-Dec-12 00:00:00.0000, -1.972717975600907E+09, -3.898469844798339E+09,  9.879239896140757E+08,  5.005020244823820E+00, -3.253005434493265E+00, -1.102896259202480E+00,
2450430.500000000, A.D. 1996-Dec-13 00:00:00.0000, -1.972285600434623E+09, -3.898750406520249E+09,  9.878295767540020E+08,  5.006468831807397E+00, -3.239427656764295E+00, -1.084187466315639E+00,
$$EOE
**************************************************************************************************************************************************************************************************
Coordinate system description:

  Ecliptic and Mean Equinox of Reference Epoch

    Reference epoch: J2000.0
    XY-plane: plane of the Earth's orbit at the reference epoch
              Note: obliquity of 84381.448 arcseconds wrt ICRF equator (IAU76)
    X-axis  : out along ascending node of instantaneous plane of the Earth's
              orbit and the Earth's mean equator at the reference epoch
    Z-axis  : perpendicular to the xy-plane in the directional (+ or -) sense
              of Earth's north pole at the reference epoch.

  Symbol meaning:

    JDTDB    Julian Day Number, Barycentric Dynamical Time
      X      X-component of position vector (km)                               
      Y      Y-component of position vector (km)                               
      Z      Z-component of position vector (km)                               
      VX     X-component of velocity vector (km/sec)                           
      VY     Y-component of velocity vector (km/sec)                           
      VZ     Z-component of velocity vector (km/sec)                           

Geometric states/elements have no aberrations applied.

 Computations by ...
     Solar System Dynamics Group, Horizons On-Line Ephemeris System
     4800 Oak Grove Drive, Jet Propulsion Laboratory
     Pasadena, CA  91109   USA
     Information: http://ssd.jpl.nasa.gov/
     Connect    : telnet://ssd.jpl.nasa.gov:6775  (via browser)
                  http://ssd.jpl.nasa.gov/?horizons
                  telnet ssd.jpl.nasa.gov 6775    (via command-line)
     Author     : Jon.D.Giorgini@jpl.nasa.gov
*******************************************************************************
